EUTELSAT QUANTUM        
1 49056U 21069B   26016.59486071  .00000144  00000+0  00000+0 0  9994
2 49056   0.0104  33.2570 0003081 268.4221  76.1907  1.00270865 16408
EUTELSAT KONNECT VHTS   
1 53765U 22110A   26016.58593399  .00000034  00000+0  00000+0 0  9993
2 53765   0.0586  97.3580 0002674 173.5270  58.7982  1.00269933  5314
EUTELSAT HOTBIRD 13F    
1 54048U 22134A   26016.58792734  .00000104  00000+0  00000+0 0  9996
2 54048   0.0573 283.3569 0002205  84.2105 333.0859  1.00272040 11855
EUTELSAT HOTBIRD 13G    
1 54225U 22146A   26016.34628110  .00000000  00000+0  00000+0 0  9991
2 54225   0.0133 227.7772 0001894 305.5016  80.1651  1.00270817  5948
EUTELSAT 10B            
1 54259U 22157A   26016.51588058  .00000086  00000+0  00000+0 0  9999
2 54259   0.0606  94.8907 0000871 355.7957 220.9400  1.00272202 11503
EUTELSAT 36D            
1 59346U 24059A   26016.44966684  .00000173  00000+0  00000+0 0  9998
2 59346   0.0185  52.7656 0000255 335.8497 284.9702  1.00271841  6625
